{
    "links": {
        "self": "http://www.neowsapp.com/rest/v1/neo/3837789?api_key=iIulBulltgU6a56xZRHN4H3l9WmuAYTsLGpBGhQ2"
    },
    "id": "3837789",
    "neo_reference_id": "3837789",
    "name": "(2019 AB9)",
    "designation": "2019 AB9",
    "nasa_jpl_url": "http://ssd.jpl.nasa.gov/sbdb.cgi?sstr=3837789",
    "absolute_magnitude_h": 24.5,
    "estimated_diameter": {
        "kilometers": {
            "estimated_diameter_min": 0.0334622374,
            "estimated_diameter_max": 0.0748238376
        },
        "meters": {
            "estimated_diameter_min": 33.4622374455,
            "estimated_diameter_max": 74.8238376074
        },
        "miles": {
            "estimated_diameter_min": 0.0207924639,
            "estimated_diameter_max": 0.0464933628
        },
        "feet": {
            "estimated_diameter_min": 109.7842471007,
            "estimated_diameter_max": 245.4850393757
        }
    },
    "is_potentially_hazardous_asteroid": false,
    "close_approach_data": [
        {
            "close_approach_date": "2009-01-23",
            "close_approach_date_full": "2009-Jan-23 09:29",
            "epoch_date_close_approach": 1232702940000,
            "relative_velocity": {
                "kilometers_per_second": "9.0041468245",
                "kilometers_per_hour": "32414.9285680634",
                "miles_per_hour": "20141.3760316392"
            },
            "miss_distance": {
                "astronomical": "0.2359871137",
                "lunar": "91.7989872293",
                "kilometers": "35303169.556967819",
                "miles": "21936372.3595971422"
            },
            "orbiting_body": "Earth"
        },
        {
            "close_approach_date": "2014-01-26",
            "close_approach_date_full": "2014-Jan-26 08:23",
            "epoch_date_close_approach": 1390724580000,
            "relative_velocity": {
                "kilometers_per_second": "7.9984885723",
                "kilometers_per_hour": "28794.5588601973",
                "miles_per_hour": "17891.8190873265"
            },
            "miss_distance": {
                "astronomical": "0.1604576591",
                "lunar": "62.4180293899",
                "kilometers": "24004124.026546117",
                "miles": "14915471.0305137346"
            },
            "orbiting_body": "Earth"
        },
        {
            "close_approach_date": "2019-01-29",
            "close_approach_date_full": "2019-Jan-29 05:37",
            "epoch_date_close_approach": 1548740220000,
            "relative_velocity": {
                "kilometers_per_second": "7.4765214343",
                "kilometers_per_hour": "26915.477163309",
                "miles_per_hour": "16724.2307962794"
            },
            "miss_distance": {
                "astronomical": "0.1311660425",
                "lunar": "51.0235905325",
                "kilometers": "19622160.574329475",
                "miles": "12192645.200417755"
            },
            "orbiting_body": "Earth"
        },
        {
            "close_approach_date": "2024-02-01",
            "close_approach_date_full": "2024-Feb-01 21:45",
            "epoch_date_close_approach": 1706823900000,
            "relative_velocity": {
                "kilometers_per_second": "7.3873820396",
                "kilometers_per_hour": "26594.5753424293",
                "miles_per_hour": "16524.8348843"
            },
            "miss_distance": {
                "astronomical": "0.1629744011",
                "lunar": "63.3970420279",
                "kilometers": "24380623.269085657",
                "miles": "15149416.8116177866"
            },
            "orbiting_body": "Earth"
        }
    ],
    "orbital_data": {
        "orbit_id": "4",
        "orbit_determination_date": "2019-02-04 07:24:43",
        "first_observation_date": "2019-01-09",
        "last_observation_date": "2019-02-04",
        "data_arc_in_days": 26,
        "observations_used": 19,
        "orbit_uncertainty": "7",
        "minimum_orbit_intersection": ".130867",
        "jupiter_tisserand_invariant": "4.695",
        "epoch_osculation": "2459000.5",
        "eccentricity": ".2114056049618054",
        "semi_major_axis": "1.402722016299482",
        "inclination": "13.84364811168033",
        "ascending_node_longitude": "313.9456144095594",
        "orbital_period": "606.814356441153",
        "perihelion_distance": "1.106178719850446",
        "perihelion_argument": "158.6831560760463",
        "aphelion_distance": "1.699265312748517",
        "perihelion_time": "2459102.337438401351",
        "mean_anomaly": "299.5837006238634",
        "mean_motion": ".5932621668863098",
        "equinox": "J2000",
        "orbit_class": {
            "orbit_class_type": "AMO",
            "orbit_class_description": "Near-Earth asteroid orbits similar to that of 1221 Amor",
            "orbit_class_range": "1.017 AU < q (perihelion) < 1.3 AU"
        }
    },
    "is_sentry_object": false
}